{
    "links": {
        "self": "http://www.neowsapp.com/rest/v1/neo/3802094?api_key=iIulBulltgU6a56xZRHN4H3l9WmuAYTsLGpBGhQ2"
    },
    "id": "3802094",
    "neo_reference_id": "3802094",
    "name": "(2018 FX4)",
    "designation": "2018 FX4",
    "nasa_jpl_url": "http://ssd.jpl.nasa.gov/sbdb.cgi?sstr=3802094",
    "absolute_magnitude_h": 25.6,
    "estimated_diameter": {
        "kilometers": {
            "estimated_diameter_min": 0.0201629919,
            "estimated_diameter_max": 0.0450858206
        },
        "meters": {
            "estimated_diameter_min": 20.1629919443,
            "estimated_diameter_max": 45.0858206172
        },
        "miles": {
            "estimated_diameter_min": 0.0125286985,
            "estimated_diameter_max": 0.0280150214
        },
        "feet": {
            "estimated_diameter_min": 66.1515504905,
            "estimated_diameter_max": 147.9193637137
        }
    },
    "is_potentially_hazardous_asteroid": false,
    "close_approach_data": [
        {
            "close_approach_date": "2015-08-07",
            "close_approach_date_full": "2015-Aug-07 07:05",
            "epoch_date_close_approach": 1438931100000,
            "relative_velocity": {
                "kilometers_per_second": "35.3311416718",
                "kilometers_per_hour": "127192.1100185592",
                "miles_per_hour": "79032.2308056986"
            },
            "miss_distance": {
                "astronomical": "0.4235918476",
                "lunar": "164.7772287164",
                "kilometers": "63368438.150324612",
                "miles": "39375321.6086871656"
            },
            "orbiting_body": "Earth"
        },
        {
            "close_approach_date": "2018-03-20",
            "close_approach_date_full": "2018-Mar-20 06:09",
            "epoch_date_close_approach": 1521526140000,
            "relative_velocity": {
                "kilometers_per_second": "22.3884792225",
                "kilometers_per_hour": "80598.5252011458",
                "miles_per_hour": "50080.7891729008"
            },
            "miss_distance": {
                "astronomical": "0.0105641149",
                "lunar": "4.1094406961",
                "kilometers": "1580369.087475263",
                "miles": "981995.8152061094"
            },
            "orbiting_body": "Earth"
        }
    ],
    "orbital_data": {
        "orbit_id": "2",
        "orbit_determination_date": "2018-03-27 06:21:05",
        "first_observation_date": "2018-03-22",
        "last_observation_date": "2018-03-26",
        "data_arc_in_days": 4,
        "observations_used": 47,
        "orbit_uncertainty": "8",
        "minimum_orbit_intersection": ".00413946",
        "jupiter_tisserand_invariant": "3.738",
        "epoch_osculation": "2458200.5",
        "eccentricity": ".7249567820924732",
        "semi_major_axis": "1.773425519310709",
        "inclination": "1.791645057118075",
        "ascending_node_longitude": "7.472032491657269",
        "orbital_period": "862.6166912031159",
        "perihelion_distance": ".4877686615505442",
        "perihelion_argument": "69.97969275835968",
        "aphelion_distance": "3.059082377070873",
        "perihelion_time": "2458150.448228072604",
        "mean_anomaly": "20.88834829839828",
        "mean_motion": ".4173348413858047",
        "equinox": "J2000",
        "orbit_class": {
            "orbit_class_type": "APO",
            "orbit_class_description": "Near-Earth asteroid orbits which cross the Earth’s orbit similar to that of 1862 Apollo",
            "orbit_class_range": "a (semi-major axis) > 1.0 AU; q (perihelion) < 1.017 AU"
        }
    },
    "is_sentry_object": false
}